HST                     
1 20580U 90037B   26068.15977042  .00009063  00000+0  30023-3 0  9999
2 20580  28.4717  43.6133 0001837 120.9992 239.0785 15.29473555773239
STARLINK-34594          
1 65088U 25167L   26068.15392962  .00041699  00000+0  14109-2 0  9992
2 65088  53.1625  29.4450 0001835  84.8370 275.2840 15.30228068 33393
